HIERARCHY
ROOT Root
{
  OFFSET 0 0 0
  CHANNELS 6 Xposition Yposition Zposition Zrotation Yrotation Xrotation
  JOINT Hips
  {
    OFFSET 0 100 0
    CHANNELS 6 Xposition Yposition Zposition Zrotation Yrotation Xrotation
    JOINT Spine1
    {
      OFFSET 0 5 0
      CHANNELS 3 Zrotation Yrotation Xrotation
      JOINT Spine2
      {
        OFFSET 0 7 0
        CHANNELS 3 Zrotation Yrotation Xrotation
        JOINT Chest
        {
          OFFSET 0 8 0
          CHANNELS 3 Zrotation Yrotation Xrotation
          JOINT Neck1
          {
            OFFSET 0 26.0192 0
            CHANNELS 3 Zrotation Yrotation Xrotation
            JOINT Neck2
            {
              OFFSET 0 8 0
              CHANNELS 3 Zrotation Yrotation Xrotation
              JOINT Head
              {
                OFFSET 0 6 0
                CHANNELS 3 Zrotation Yrotation Xrotation
                JOINT HeadEnd
                {
                  OFFSET 4 0 0
                  CHANNELS 3 Zrotation Yrotation Xrotation
                }
                JOINT Jaw
                {
                  OFFSET 4 0 0
                  CHANNELS 3 Zrotation Yrotation Xrotation
                }
                JOINT LeftEye
                {
                  OFFSET 4 0 0
                  CHANNELS 3 Zrotation Yrotation Xrotation
                }
                JOINT RightEye
                {
                  OFFSET -4 0 0
                  CHANNELS 3 Zrotation Yrotation Xrotation
                }
              }
            }
          }
          JOINT LeftShoulder
          {
            OFFSET 23.622 0 0
            CHANNELS 3 Zrotation Yrotation Xrotation
            JOINT LeftArm
            {
              OFFSET 16 0 0
              CHANNELS 3 Zrotation Yrotation Xrotation
              JOINT LeftForeArm
              {
                OFFSET 29 0 0
                CHANNELS 3 Zrotation Yrotation Xrotation
                JOINT LeftHand
                {
                  OFFSET 27 0 0
                  CHANNELS 3 Zrotation Yrotation Xrotation
                  JOINT LeftHandThumb1
                  {
                    OFFSET 4 0 0
                    CHANNELS 3 Zrotation Yrotation Xrotation
                    JOINT LeftHandThumb2
                    {
                      OFFSET 4 0 0
                      CHANNELS 3 Zrotation Yrotation Xrotation
                      JOINT LeftHandThumb3
                      {
                        OFFSET 4 0 0
                        CHANNELS 3 Zrotation Yrotation Xrotation
                        JOINT LeftHandThumbEnd
                        {
                          OFFSET 4 0 0
                          CHANNELS 3 Zrotation Yrotation Xrotation
                        }
                      }
                    }
                  }
                  JOINT LeftHandIndex1
                  {
                    OFFSET 4 0 0
                    CHANNELS 3 Zrotation Yrotation Xrotation
                    JOINT LeftHandIndex2
                    {
                      OFFSET 4 0 0
                      CHANNELS 3 Zrotation Yrotation Xrotation
                      JOINT LeftHandIndex3
                      {
                        OFFSET 4 0 0
                        CHANNELS 3 Zrotation Yrotation Xrotation
                        JOINT LeftHandIndex4
                        {
                          OFFSET 4 0 0
                          CHANNELS 3 Zrotation Yrotation Xrotation
                          JOINT LeftHandIndexEnd
                          {
                            OFFSET 4 0 0
                            CHANNELS 3 Zrotation Yrotation Xrotation
                          }
                        }
                      }
                    }
                  }
                  JOINT LeftHandMiddle1
                  {
                    OFFSET 4 0 0
                    CHANNELS 3 Zrotation Yrotation Xrotation
                    JOINT LeftHandMiddle2
                    {
                      OFFSET 4 0 0
                      CHANNELS 3 Zrotation Yrotation Xrotation
                      JOINT LeftHandMiddle3
                      {
                        OFFSET 4 0 0
                        CHANNELS 3 Zrotation Yrotation Xrotation
                        JOINT LeftHandMiddle4
                        {
                          OFFSET 4 0 0
                          CHANNELS 3 Zrotation Yrotation Xrotation
                          JOINT LeftHandMiddleEnd
                          {
                            OFFSET 4 0 0
                            CHANNELS 3 Zrotation Yrotation Xrotation
                          }
                        }
                      }
                    }
                  }
                  JOINT LeftHandRing1
                  {
                    OFFSET 4 0 0
                    CHANNELS 3 Zrotation Yrotation Xrotation
                    JOINT LeftHandRing2
                    {
                      OFFSET 4 0 0
                      CHANNELS 3 Zrotation Yrotation Xrotation
                      JOINT LeftHandRing3
                      {
                        OFFSET 4 0 0
                        CHANNELS 3 Zrotation Yrotation Xrotation
                        JOINT LeftHandRing4
                        {
                          OFFSET 4 0 0
                          CHANNELS 3 Zrotation Yrotation Xrotation
                          JOINT LeftHandRingEnd
                          {
                            OFFSET 4 0 0
                            CHANNELS 3 Zrotation Yrotation Xrotation
                          }
                        }
                      }
                    }
                  }
                  JOINT LeftHandPinky1
                  {
                    OFFSET 4 0 0
                    CHANNELS 3 Zrotation Yrotation Xrotation
                    JOINT LeftHandPinky2
                    {
                      OFFSET 4 0 0
                      CHANNELS 3 Zrotation Yrotation Xrotation
                      JOINT LeftHandPinky3
                      {
                        OFFSET 4 0 0
                        CHANNELS 3 Zrotation Yrotation Xrotation
                        JOINT LeftHandPinky4
                        {
                          OFFSET 4 0 0
                          CHANNELS 3 Zrotation Yrotation Xrotation
                          JOINT LeftHandPinkyEnd
                          {
                            OFFSET 4 0 0
                            CHANNELS 3 Zrotation Yrotation Xrotation
                          }
                        }
                      }
                    }
                  }
                }
              }
            }
          }
          JOINT RightShoulder
          {
            OFFSET -23.622 0 0
            CHANNELS 3 Zrotation Yrotation Xrotation
            JOINT RightArm
            {
              OFFSET -16 0 0
              CHANNELS 3 Zrotation Yrotation Xrotation
              JOINT RightForeArm
              {
                OFFSET -29 0 0
                CHANNELS 3 Zrotation Yrotation Xrotation
                JOINT RightHand
                {
                  OFFSET -27 0 0
                  CHANNELS 3 Zrotation Yrotation Xrotation
                  JOINT RightHandThumb1
                  {
                    OFFSET -4 0 0
                    CHANNELS 3 Zrotation Yrotation Xrotation
                    JOINT RightHandThumb2
                    {
                      OFFSET -4 0 0
                      CHANNELS 3 Zrotation Yrotation Xrotation
                      JOINT RightHandThumb3
                      {
                        OFFSET -4 0 0
                        CHANNELS 3 Zrotation Yrotation Xrotation
                        JOINT RightHandThumbEnd
                        {
                          OFFSET -4 0 0
                          CHANNELS 3 Zrotation Yrotation Xrotation
                        }
                      }
                    }
                  }
                  JOINT RightHandIndex1
                  {
                    OFFSET -4 0 0
                    CHANNELS 3 Zrotation Yrotation Xrotation
                    JOINT RightHandIndex2
                    {
                      OFFSET -4 0 0
                      CHANNELS 3 Zrotation Yrotation Xrotation
                      JOINT RightHandIndex3
                      {
                        OFFSET -4 0 0
                        CHANNELS 3 Zrotation Yrotation Xrotation
                        JOINT RightHandIndex4
                        {
                          OFFSET -4 0 0
                          CHANNELS 3 Zrotation Yrotation Xrotation
                          JOINT RightHandIndexEnd
                          {
                            OFFSET -4 0 0
                            CHANNELS 3 Zrotation Yrotation Xrotation
                          }
                        }
                      }
                    }
                  }
                  JOINT RightHandMiddle1
                  {
                    OFFSET -4 0 0
                    CHANNELS 3 Zrotation Yrotation Xrotation
                    JOINT RightHandMiddle2
                    {
                      OFFSET -4 0 0
                      CHANNELS 3 Zrotation Yrotation Xrotation
                      JOINT RightHandMiddle3
                      {
                        OFFSET -4 0 0
                        CHANNELS 3 Zrotation Yrotation Xrotation
                        JOINT RightHandMiddle4
                        {
                          OFFSET -4 0 0
                          CHANNELS 3 Zrotation Yrotation Xrotation
                          JOINT RightHandMiddleEnd
                          {
                            OFFSET -4 0 0
                            CHANNELS 3 Zrotation Yrotation Xrotation
                          }
                        }
                      }
                    }
                  }
                  JOINT RightHandRing1
                  {
                    OFFSET -4 0 0
                    CHANNELS 3 Zrotation Yrotation Xrotation
                    JOINT RightHandRing2
                    {
                      OFFSET -4 0 0
                      CHANNELS 3 Zrotation Yrotation Xrotation
                      JOINT RightHandRing3
                      {
                        OFFSET -4 0 0
                        CHANNELS 3 Zrotation Yrotation Xrotation
                        JOINT RightHandRing4
                        {
                          OFFSET -4 0 0
                          CHANNELS 3 Zrotation Yrotation Xrotation
                          JOINT RightHandRingEnd
                          {
                            OFFSET -4 0 0
                            CHANNELS 3 Zrotation Yrotation Xrotation
                          }
                        }
                      }
                    }
                  }
                  JOINT RightHandPinky1
                  {
                    OFFSET -4 0 0
                    CHANNELS 3 Zrotation Yrotation Xrotation
                    JOINT RightHandPinky2
                    {
                      OFFSET -4 0 0
                      CHANNELS 3 Zrotation Yrotation Xrotation
                      JOINT RightHandPinky3
                      {
                        OFFSET -4 0 0
                        CHANNELS 3 Zrotation Yrotation Xrotation
                        JOINT RightHandPinky4
                        {
                          OFFSET -4 0 0
                          CHANNELS 3 Zrotation Yrotation Xrotation
                          JOINT RightHandPinkyEnd
                          {
                            OFFSET -4 0 0
                            CHANNELS 3 Zrotation Yrotation Xrotation
                          }
                        }
                      }
                    }
                  }
                }
              }
            }
          }
        }
      }
    }
    JOINT LeftLeg
    {
      OFFSET 0 -3.8035 12.591
      CHANNELS 3 Zrotation Yrotation Xrotation
      JOINT LeftShin
      {
        OFFSET 0 -43 0
        CHANNELS 3 Zrotation Yrotation Xrotation
        JOINT LeftFoot
        {
          OFFSET 0 -42 0
          CHANNELS 3 Zrotation Yrotation Xrotation
          JOINT LeftToeBase
          {
            OFFSET 0 -6.3171 12.4938
            CHANNELS 3 Zrotation Yrotation Xrotation
            JOINT LeftToeEnd
            {
              OFFSET 4 0 0
              CHANNELS 3 Zrotation Yrotation Xrotation
            }
          }
        }
      }
    }
    JOINT RightLeg
    {
      OFFSET 0 -3.8035 -12.591
      CHANNELS 3 Zrotation Yrotation Xrotation
      JOINT RightShin
      {
        OFFSET 0 -43 0
        CHANNELS 3 Zrotation Yrotation Xrotation
        JOINT RightFoot
        {
          OFFSET 0 -42 0
          CHANNELS 3 Zrotation Yrotation Xrotation
          JOINT RightToeBase
          {
            OFFSET 0 -6.3171 12.4938
            CHANNELS 3 Zrotation Yrotation Xrotation
            JOINT RightToeEnd
            {
              OFFSET -4 0 0
              CHANNELS 3 Zrotation Yrotation Xrotation
            }
          }
        }
      }
    }
  }
}
MOTION
Frames: 31
Frame Time: 0.03333333333333333
0 0 0 0 0 0 0 100 0 0 0 0 0 0 0 0 0 0 0 0 0 0 0 0 0 0 0 90 0 0 0 0 0 0 0 0 0 0 0 0 0 0 90 -81.4692 -81.4692 -71.7772 -8.1088 5.872 0 0 0 0 0 0 0 0 0 0 0 0 0 0 0 0 0 0 0 0 0 0 0 0 0 0 0 0 0 0 0 0 0 0 0 0 0 0 0 0 0 0 0 0 0 0 0 0 0 0 0 0 0 0 0 0 0 0 0 0 0 0 0 0 0 0 0 0 0 0 0 0 0 0 0 0 0 0 -90 -81.4692 81.4692 71.7772 -8.1088 -5.872 0 0 0 0 0 0 0 0 0 0 0 0 0 0 0 0 0 0 0 0 0 0 0 0 0 0 0 0 0 0 0 0 0 0 0 0 0 0 0 0 0 0 0 0 0 0 0 0 0 0 0 0 0 0 0 0 0 0 0 0 0 0 0 0 0 0 0 0 0 0 0 0 0 0 0 0 0 0 0 0 0 0 0 0 78.6901 53.5081 63.178 -90 -63.178 63.178 0 0 0 0 0 0 0 0 0 78.6901 53.5081 63.178 90 63.178 63.178 0 0 0
0 0 0 0 0 0 2 101.1147 0 0 0 0 -2.1415 0.0435 2.3275 4.5151 0.2018 -5.1156 -4.273 0.2258 6.046 4.52 0.1205 -3.0533 -2.865 -0.0587 -2.346 89.9307 -3.5723 -3.568 0 0 0 0 0 0 0 0 0 0 0 0 78.4783 -77.8893 -66.8545 -71.5413 -14.1143 10.1933 -0.0543 0.7373 -0.0003 0 0 0 0 0 0 0 0 0 0 0 0 0 0 0 0 0 0 0 0 0 0 0 0 0 0 0 0 0 0 0 0 0 0 0 0 0 0 0 0 0 0 0 0 0 0 0 0 0 0 0 0 0 0 0 0 0 0 0 0 0 0 0 0 0 0 0 0 0 0 0 0 0 0 0 -115.5624 -84.0623 110.0826 71.4588 -9.7717 -7.0375 -0.2385 -0.7213 0.0015 0 0 0 0 0 0 0 0 0 0 0 0 0 0 0 0 0 0 0 0 0 0 0 0 0 0 0 0 0 0 0 0 0 0 0 0 0 0 0 0 0 0 0 0 0 0 0 0 0 0 0 0 0 0 0 0 0 0 0 0 0 0 0 0 0 0 0 0 0 0 0 0 0 0 0 5.3606 0 0 0.3756 0 0 72.9538 48.8976 63.178 -90 -63.178 63.178 0 0 0 -5.3606 0 0 34.0019 0 0 50.0488 32.0344 63.178 90 63.178 63.178 0 0 0
0 0 0 0 0 0 4 101.4918 0 0 0 0 -4.1758 0.1546 4.2388 8.7783 0.7148 -9.2921 -8.2874 0.7983 10.9853 8.8108 0.394 -5.111 -6.067 -0.265 -4.9968 89.6997 -6.9783 -6.9419 0 0 0 0 0 0 0 0 0 0 0 0 73.9042 -74.6666 -59.6899 -71.3683 -19.2969 13.9217 -0.2999 2.8691 -0.0075 0 0 0 0 0 0 0 0 0 0 0 0 0 0 0 0 0 0 0 0 0 0 0 0 0 0 0 0 0 0 0 0 0 0 0 0 0 0 0 0 0 0 0 0 0 0 0 0 0 0 0 0 0 0 0 0 0 0 0 0 0 0 0 0 0 0 0 0 0 0 0 0 0 0 0 -148.6185 -84.4223 145.5863 70.7096 -11.7844 -8.3754 -1.1141 -2.7956 0.0272 0 0 0 0 0 0 0 0 0 0 0 0 0 0 0 0 0 0 0 0 0 0 0 0 0 0 0 0 0 0 0 0 0 0 0 0 0 0 0 0 0 0 0 0 0 0 0 0 0 0 0 0 0 0 0 0 0 0 0 0 0 0 0 0 0 0 0 0 0 0 0 0 0 0 0 10.4869 0 0 1.486 0 0 66.7171 44.0801 63.178 -90 -63.178 63.178 0 0 0 -10.4869 0 0 32.8914 0 0 56.2856 36.4159 63.178 90 63.178 63.178 0 0 0
0 0 0 0 0 0 6 100.8817 0 0 0 0 -6.0126 0.284 5.4029 12.6055 1.308 -11.8014 -11.8755 1.4594 13.9628 12.6828 0.6389 -5.7446 -9.4318 -0.6472 -7.8331 89.2912 -10.0553 -9.9322 0 0 0 0 0 0 0 0 0 0 0 0 72.6236 -72.6226 -56.7429 -71.1524 -22.8174 16.427 -0.7772 6.286 -0.0427 0 0 0 0 0 0 0 0 0 0 0 0 0 0 0 0 0 0 0 0 0 0 0 0 0 0 0 0 0 0 0 0 0 0 0 0 0 0 0 0 0 0 0 0 0 0 0 0 0 0 0 0 0 0 0 0 0 0 0 0 0 0 0 0 0 0 0 0 0 0 0 0 0 0 0 -165.9471 -83.674 164.3225 69.6877 -14.2637 -9.9562 -2.7811 -5.9573 0.1447 0 0 0 0 0 0 0 0 0 0 0 0 0 0 0 0 0 0 0 0 0 0 0 0 0 0 0 0 0 0 0 0 0 0 0 0 0 0 0 0 0 0 0 0 0 0 0 0 0 0 0 0 0 0 0 0 0 0 0 0 0 0 0 0 0 0 0 0 0 0 0 0 0 0 0 15.1549 0 0 3.2828 0 0 60.2524 39.2772 63.178 -90 -63.178 63.178 0 0 0 -15.1549 0 0 31.0947 0 0 62.7503 41.1115 63.178 90 63.178 63.178 0 0 0
0 0 0 0 0 0 8 99.6881 0 0 0 0 -7.5822 0.3734 5.6298 15.884 1.7153 -12.2496 -14.9591 1.9155 14.5132 15.9867 0.6693 -4.764 -12.7973 -1.2045 -10.7095 88.7281 -12.6534 -12.3778 0 0 0 0 0 0 0 0 0 0 0 0 73.359 -72.1854 -57.0028 -70.772 -24.1816 17.3029 -1.3871 10.9273 -0.1327 0 0 0 0 0 0 0 0 0 0 0 0 0 0 0 0 0 0 0 0 0 0 0 0 0 0 0 0 0 0 0 0 0 0 0 0 0 0 0 0 0 0 0 0 0 0 0 0 0 0 0 0 0 0 0 0 0 0 0 0 0 0 0 0 0 0 0 0 0 0 0 0 0 0 0 -167.7332 -83.4841 166.2657 68.5563 -17.2674 -11.8172 -5.2405 -9.8221 0.4506 0 0 0 0 0 0 0 0 0 0 0 0 0 0 0 0 0 0 0 0 0 0 0 0 0 0 0 0 0 0 0 0 0 0 0 0 0 0 0 0 0 0 0 0 0 0 0 0 0 0 0 0 0 0 0 0 0 0 0 0 0 0 0 0 0 0 0 0 0 0 0 0 0 0 0 19.1606 0 0 5.6872 0 0 53.8423 34.6832 63.178 -90 -63.178 63.178 0 0 0 -19.1606 0 0 28.6902 0 0 69.1604 45.9446 63.178 90 63.178 63.178 0 0 0
0 0 0 0 0 0 10 98.701 0 0 0 0 -8.8279 0.3778 4.8909 18.5215 1.7339 -10.6044 -17.4733 1.9418 12.5863 18.5899 0.363 -2.2175 -16.0267 -1.9041 -13.4644 88.0745 -14.6487 -14.1695 0 0 0 0 0 0 0 0 0 0 0 0 75.9019 -73.4447 -60.3816 -70.1513 -23.291 16.4691 -1.8972 16.7278 -0.279 0 0 0 0 0 0 0 0 0 0 0 0 0 0 0 0 0 0 0 0 0 0 0 0 0 0 0 0 0 0 0 0 0 0 0 0 0 0 0 0 0 0 0 0 0 0 0 0 0 0 0 0 0 0 0 0 0 0 0 0 0 0 0 0 0 0 0 0 0 0 0 0 0 0 0 -155.8383 -84.1451 153.3228 67.4155 -20.7721 -13.9419 -8.3555 -13.9833 1.0265 0 0 0 0 0 0 0 0 0 0 0 0 0 0 0 0 0 0 0 0 0 0 0 0 0 0 0 0 0 0 0 0 0 0 0 0 0 0 0 0 0 0 0 0 0 0 0 0 0 0 0 0 0 0 0 0 0 0 0 0 0 0 0 0 0 0 0 0 0 0 0 0 0 0 0 22.3288 0 0 8.5944 0 0 47.7669 30.4637 63.178 -90 -63.178 63.178 0 0 0 -22.3288 0 0 25.7831 0 0 75.2358 50.71 63.178 90 63.178 63.178 0 0 0
0 0 0 0 0 0 12 98.5734 0 0 0 0 -9.698 0.2814 3.3158 20.4009 1.2917 -7.1698 -19.2997 1.4519 8.5239 20.3627 -0.294 1.6371 -19.0087 -2.6855 -15.9399 87.4177 -15.954 -15.2592 0 0 0 0 0 0 0 0 0 0 0 0 80.9166 -76.1581 -67.5013 -69.2826 -20.4292 14.1933 -1.9893 23.4864 -0.4136 0 0 0 0 0 0 0 0 0 0 0 0 0 0 0 0 0 0 0 0 0 0 0 0 0 0 0 0 0 0 0 0 0 0 0 0 0 0 0 0 0 0 0 0 0 0 0 0 0 0 0 0 0 0 0 0 0 0 0 0 0 0 0 0 0 0 0 0 0 0 0 0 0 0 0 -126.0569 -84.5876 121.555 66.2947 -24.628 -16.2268 -11.8989 -18.0985 1.9018 0 0 0 0 0 0 0 0 0 0 0 0 0 0 0 0 0 0 0 0 0 0 0 0 0 0 0 0 0 0 0 0 0 0 0 0 0 0 0 0 0 0 0 0 0 0 0 0 0 0 0 0 0 0 0 0 0 0 0 0 0 0 0 0 0 0 0 0 0 0 0 0 0 0 0 24.5212 0 0 11.8771 0 0 42.2918 26.7585 63.178 -90 -63.178 63.178 0 0 0 -24.5212 0 0 22.5003 0 0 80.7109 55.1769 63.178 90 63.178 63.178 0 0 0
0 0 0 0 0 0 14 99.3899 0 0 0 0 -10.1471 0.1041 1.1724 21.388 0.4781 -2.5314 -20.2749 0.5388 3.0126 21.1941 -1.1922 6.3658 -21.6465 -3.4699 -18.0058 86.8405 -16.5254 -15.6497 0 0 0 0 0 0 0 0 0 0 0 0 90.7149 -79.7066 -80.4108 -68.2099 -16.2169 11.0215 -1.3685 30.7617 -0.3765 0 0 0 0 0 0 0 0 0 0 0 0 0 0 0 0 0 0 0 0 0 0 0 0 0 0 0 0 0 0 0 0 0 0 0 0 0 0 0 0 0 0 0 0 0 0 0 0 0 0 0 0 0 0 0 0 0 0 0 0 0 0 0 0 0 0 0 0 0 0 0 0 0 0 0 -92.0533 -82.9961 85.0385 65.1884 -28.521 -18.4606 -15.6002 -21.9471 3.043 0 0 0 0 0 0 0 0 0 0 0 0 0 0 0 0 0 0 0 0 0 0 0 0 0 0 0 0 0 0 0 0 0 0 0 0 0 0 0 0 0 0 0 0 0 0 0 0 0 0 0 0 0 0 0 0 0 0 0 0 0 0 0 0 0 0 0 0 0 0 0 0 0 0 0 25.6419 0 0 15.392 0 0 37.6562 23.6843 63.178 -90 -63.178 63.178 0 0 0 -25.6419 0 0 18.9854 0 0 85.3465 59.0994 63.178 90 63.178 63.178 0 0 0
0 0 0 0 0 0 16 100.6101 0 0 0 0 -10.1471 -0.1041 -1.1724 21.388 -0.4781 2.5314 -20.2749 -0.5388 -3.0126 21.0309 -2.1239 11.4057 -23.847 -4.1727 -19.5765 86.3949 -16.3607 -15.3747 0 0 0 0 0 0 0 0 0 0 0 0 111.2393 -82.9679 -104.5348 -67.0162 -11.5033 7.6306 0.0686 37.9169 0.0236 0 0 0 0 0 0 0 0 0 0 0 0 0 0 0 0 0 0 0 0 0 0 0 0 0 0 0 0 0 0 0 0 0 0 0 0 0 0 0 0 0 0 0 0 0 0 0 0 0 0 0 0 0 0 0 0 0 0 0 0 0 0 0 0 0 0 0 0 0 0 0 0 0 0 0 -73.402 -79.7259 63.7992 64.1047 -31.9762 -20.3416 -19.1869 -25.4575 4.3729 0 0 0 0 0 0 0 0 0 0 0 0 0 0 0 0 0 0 0 0 0 0 0 0 0 0 0 0 0 0 0 0 0 0 0 0 0 0 0 0 0 0 0 0 0 0 0 0 0 0 0 0 0 0 0 0 0 0 0 0 0 0 0 0 0 0 0 0 0 0 0 0 0 0 0 25.6419 0 0 18.9854 0 0 34.0628 21.3361 63.178 -90 -63.178 63.178 0 0 0 -25.6419 0 0 15.392 0 0 88.9399 62.2359 63.178 90 63.178 63.178 0 0 0
0 0 0 0 0 0 18 101.4266 0 0 0 0 -9.698 -0.2814 -3.3158 20.4009 -1.2917 7.1698 -19.2997 -1.4519 -8.5239 19.9086 -2.8512 16.1414 -25.5175 -4.7164 -20.6151 86.0901 -15.4943 -14.4827 0 0 0 0 0 0 0 0 0 0 0 0 145.9879 -84.3174 -142.671 -65.8273 -7.1712 4.6452 2.0843 44.3191 0.849 0 0 0 0 0 0 0 0 0 0 0 0 0 0 0 0 0 0 0 0 0 0 0 0 0 0 0 0 0 0 0 0 0 0 0 0 0 0 0 0 0 0 0 0 0 0 0 0 0 0 0 0 0 0 0 0 0 0 0 0 0 0 0 0 0 0 0 0 0 0 0 0 0 0 0 -65.1325 -76.2677 53.2595 63.102 -34.4201 -21.537 -22.4191 -28.7029 5.8053 0 0 0 0 0 0 0 0 0 0 0 0 0 0 0 0 0 0 0 0 0 0 0 0 0 0 0 0 0 0 0 0 0 0 0 0 0 0 0 0 0 0 0 0 0 0 0 0 0 0 0 0 0 0 0 0 0 0 0 0 0 0 0 0 0 0 0 0 0 0 0 0 0 0 0 24.5212 0 0 22.5003 0 0 31.6685 19.7866 63.178 -90 -63.178 63.178 0 0 0 -24.5212 0 0 11.8771 0 0 91.3341 64.3749 63.178 90 63.178 63.178 0 0 0
0 0 0 0 0 0 20 101.299 0 0 0 0 -8.8279 -0.3778 -4.8909 18.5215 -1.7339 10.6044 -17.4733 -1.9418 -12.5863 17.9407 -3.1891 20.0023 -26.5745 -5.0421 -21.1223 85.8996 -13.9897 -13.0313 0 0 0 0 0 0 0 0 0 0 0 0 172.77 -83.6636 -171.9254 -64.7981 -3.9217 2.4893 4.0922 49.5356 1.8887 0 0 0 0 0 0 0 0 0 0 0 0 0 0 0 0 0 0 0 0 0 0 0 0 0 0 0 0 0 0 0 0 0 0 0 0 0 0 0 0 0 0 0 0 0 0 0 0 0 0 0 0 0 0 0 0 0 0 0 0 0 0 0 0 0 0 0 0 0 0 0 0 0 0 0 -61.8157 -73.6251 48.2714 62.2945 -35.2815 -21.7579 -25.1024 -31.8663 7.2734 0 0 0 0 0 0 0 0 0 0 0 0 0 0 0 0 0 0 0 0 0 0 0 0 0 0 0 0 0 0 0 0 0 0 0 0 0 0 0 0 0 0 0 0 0 0 0 0 0 0 0 0 0 0 0 0 0 0 0 0 0 0 0 0 0 0 0 0 0 0 0 0 0 0 0 22.3288 0 0 25.7831 0 0 30.5781 19.0847 63.178 -90 -63.178 63.178 0 0 0 -22.3288 0 0 8.5944 0 0 92.4245 65.3626 63.178 90 63.178 63.178 0 0 0
0 0 0 0 0 0 22 100.3119 0 0 0 0 -7.5822 -0.3734 -5.6298 15.884 -1.7153 12.2496 -14.9591 -1.9155 -14.5132 15.2732 -3.062 22.5469 -26.9583 -5.1164 -21.1175 85.7781 -11.9325 -11.0896 0 0 0 0 0 0 0 0 0 0 0 0 -178.4462 -82.9945 178.2436 -64.0583 -2.1481 1.3439 5.3518 53.3724 2.6915 0 0 0 0 0 0 0 0 0 0 0 0 0 0 0 0 0 0 0 0 0 0 0 0 0 0 0 0 0 0 0 0 0 0 0 0 0 0 0 0 0 0 0 0 0 0 0 0 0 0 0 0 0 0 0 0 0 0 0 0 0 0 0 0 0 0 0 0 0 0 0 0 0 0 0 -61.346 -72.3747 46.9118 61.8157 -34.0906 -20.8018 -27.0664 -35.1822 8.7277 0 0 0 0 0 0 0 0 0 0 0 0 0 0 0 0 0 0 0 0 0 0 0 0 0 0 0 0 0 0 0 0 0 0 0 0 0 0 0 0 0 0 0 0 0 0 0 0 0 0 0 0 0 0 0 0 0 0 0 0 0 0 0 0 0 0 0 0 0 0 0 0 0 0 0 19.1606 0 0 28.6902 0 0 30.8392 19.2526 63.178 -90 -63.178 63.178 0 0 0 -19.1606 0 0 5.6872 0 0 92.1634 65.1253 63.178 90 63.178 63.178 0 0 0
0 0 0 0 0 0 24 99.1183 0 0 0 0 -6.0126 -0.284 -5.4029 12.6055 -1.308 11.8014 -11.8755 -1.4594 -13.9628 12.0386 -2.5147 23.5165 -26.6459 -4.9343 -20.6234 85.6797 -9.4233 -8.741 0 0 0 0 0 0 0 0 0 0 0 0 177.0824 -83.3042 -176.7201 -63.6461 -1.9266 1.1957 5.3068 55.7798 2.81 0 0 0 0 0 0 0 0 0 0 0 0 0 0 0 0 0 0 0 0 0 0 0 0 0 0 0 0 0 0 0 0 0 0 0 0 0 0 0 0 0 0 0 0 0 0 0 0 0 0 0 0 0 0 0 0 0 0 0 0 0 0 0 0 0 0 0 0 0 0 0 0 0 0 0 -63.0835 -72.7636 48.6682 61.7483 -30.5628 -18.5548 -28.1089 -38.8586 10.0924 0 0 0 0 0 0 0 0 0 0 0 0 0 0 0 0 0 0 0 0 0 0 0 0 0 0 0 0 0 0 0 0 0 0 0 0 0 0 0 0 0 0 0 0 0 0 0 0 0 0 0 0 0 0 0 0 0 0 0 0 0 0 0 0 0 0 0 0 0 0 0 0 0 0 0 15.1549 0 0 31.0947 0 0 32.4404 20.2849 63.178 -90 -63.178 63.178 0 0 0 -15.1549 0 0 3.2828 0 0 90.5622 63.6808 63.178 90 63.178 63.178 0 0 0
0 0 0 0 0 0 26 98.5082 0 0 0 0 -4.1758 -0.1546 -4.2388 8.7783 -0.7148 9.2921 -8.2874 -0.7983 -10.9853 8.3424 -1.6902 22.8686 -25.6528 -4.5186 -19.6616 85.5687 -6.5712 -6.0826 0 0 0 0 0 0 0 0 0 0 0 0 156.9676 -84.2404 -154.6031 -63.481 -3.0641 1.8957 3.9085 56.7633 2.1123 0 0 0 0 0 0 0 0 0 0 0 0 0 0 0 0 0 0 0 0 0 0 0 0 0 0 0 0 0 0 0 0 0 0 0 0 0 0 0 0 0 0 0 0 0 0 0 0 0 0 0 0 0 0 0 0 0 0 0 0 0 0 0 0 0 0 0 0 0 0 0 0 0 0 0 -67.2022 -74.7347 53.8058 62.0655 -24.6819 -14.9974 -27.9295 -42.9768 11.1826 0 0 0 0 0 0 0 0 0 0 0 0 0 0 0 0 0 0 0 0 0 0 0 0 0 0 0 0 0 0 0 0 0 0 0 0 0 0 0 0 0 0 0 0 0 0 0 0 0 0 0 0 0 0 0 0 0 0 0 0 0 0 0 0 0 0 0 0 0 0 0 0 0 0 0 10.4869 0 0 32.8914 0 0 35.3117 22.149 63.178 -90 -63.178 63.178 0 0 0 -10.4869 0 0 1.486 0 0 87.691 61.1359 63.178 90 63.178 63.178 0 0 0
0 0 0 0 0 0 28 98.8853 0 0 0 0 -2.1415 -0.0435 -2.3275 4.5151 -0.2018 5.1156 -4.273 -0.2258 -6.046 4.2855 -0.7869 20.8009 -24.0267 -3.9174 -18.26 85.4247 -3.4883 -3.2204 0 0 0 0 0 0 0 0 0 0 0 0 119.8583 -84.0354 -114.5467 -63.4061 -5.1512 3.1832 1.6947 56.3942 0.9086 0 0 0 0 0 0 0 0 0 0 0 0 0 0 0 0 0 0 0 0 0 0 0 0 0 0 0 0 0 0 0 0 0 0 0 0 0 0 0 0 0 0 0 0 0 0 0 0 0 0 0 0 0 0 0 0 0 0 0 0 0 0 0 0 0 0 0 0 0 0 0 0 0 0 0 -74.9365 -77.9026 63.563 62.635 -16.7894 -10.2614 -26.1051 -47.3769 11.6154 0 0 0 0 0 0 0 0 0 0 0 0 0 0 0 0 0 0 0 0 0 0 0 0 0 0 0 0 0 0 0 0 0 0 0 0 0 0 0 0 0 0 0 0 0 0 0 0 0 0 0 0 0 0 0 0 0 0 0 0 0 0 0 0 0 0 0 0 0 0 0 0 0 0 0 5.3606 0 0 34.0019 0 0 39.3276 24.7866 63.178 -90 -63.178 63.178 0 0 0 -5.3606 0 0 0.3756 0 0 83.6751 57.6695 63.178 90 63.178 63.178 0 0 0
0 0 0 0 0 0 30 100 0 0 0 0 0 0 0 0 0 0 0 0 0 0 0 17.7447 -21.8371 -3.1973 -16.4643 85.2449 -0.2858 -0.263 0 0 0 0 0 0 0 0 0 0 0 0 90 -81.4692 -81.4692 -63.2836 -7.6314 4.7069 -0.5289 54.8722 -0.2746 0 0 0 0 0 0 0 0 0 0 0 0 0 0 0 0 0 0 0 0 0 0 0 0 0 0 0 0 0 0 0 0 0 0 0 0 0 0 0 0 0 0 0 0 0 0 0 0 0 0 0 0 0 0 0 0 0 0 0 0 0 0 0 0 0 0 0 0 0 0 0 0 0 0 0 -90 -81.4692 81.4692 63.2836 -7.6314 -4.7069 -22.2066 -51.5762 10.8334 0 0 0 0 0 0 0 0 0 0 0 0 0 0 0 0 0 0 0 0 0 0 0 0 0 0 0 0 0 0 0 0 0 0 0 0 0 0 0 0 0 0 0 0 0 0 0 0 0 0 0 0 0 0 0 0 0 0 0 0 0 0 0 0 0 0 0 0 0 0 0 0 0 0 0 0 0 0 34.3775 0 0 44.3126 28.1162 63.178 -90 -63.178 63.178 0 0 0 0 0 0 0 0 0 78.6901 53.5081 63.178 90 63.178 63.178 0 0 0
0 0 0 0 0 0 32 101.1147 0 0 0 0 2.1415 -0.0435 2.3275 -4.5151 -0.2018 -5.1156 4.273 -0.2258 6.046 -4.3332 0.5435 14.2927 -19.1689 -2.4345 -14.3443 85.0477 2.9277 2.6851 0 0 0 0 0 0 0 0 0 0 0 0 74.9365 -77.9026 -63.563 -63.0883 -9.9149 6.0959 -2.1638 52.5169 -1.0676 0 0 0 0 0 0 0 0 0 0 0 0 0 0 0 0 0 0 0 0 0 0 0 0 0 0 0 0 0 0 0 0 0 0 0 0 0 0 0 0 0 0 0 0 0 0 0 0 0 0 0 0 0 0 0 0 0 0 0 0 0 0 0 0 0 0 0 0 0 0 0 0 0 0 0 -119.8583 -84.0354 114.5467 63.8794 1.7212 1.0731 -16.1898 -54.8248 8.4375 0 0 0 0 0 0 0 0 0 0 0 0 0 0 0 0 0 0 0 0 0 0 0 0 0 0 0 0 0 0 0 0 0 0 0 0 0 0 0 0 0 0 0 0 0 0 0 0 0 0 0 0 0 0 0 0 0 0 0 0 0 0 0 0 0 0 0 0 0 0 0 0 0 0 0 -5.3606 0 0 34.0019 0 0 50.0488 32.0344 63.178 -90 -63.178 63.178 0 0 0 5.3606 0 0 0.3756 0 0 72.9538 48.8976 63.178 90 63.178 63.178 0 0 0
0 0 0 0 0 0 34 101.4918 0 0 0 0 4.1758 -0.1546 4.2388 -8.7783 -0.7148 -9.2921 8.2874 -0.7983 10.9853 -8.5054 0.8249 11.0589 -16.124 -1.7041 -11.9878 84.8743 6.0461 5.5289 0 0 0 0 0 0 0 0 0 0 0 0 67.2022 -74.7347 -53.8058 -62.9348 -11.5077 7.0578 -3.0189 49.6608 -1.3971 0 0 0 0 0 0 0 0 0 0 0 0 0 0 0 0 0 0 0 0 0 0 0 0 0 0 0 0 0 0 0 0 0 0 0 0 0 0 0 0 0 0 0 0 0 0 0 0 0 0 0 0 0 0 0 0 0 0 0 0 0 0 0 0 0 0 0 0 0 0 0 0 0 0 0 -156.9676 -84.2404 154.6031 64.3819 10.1053 6.3714 -8.9621 -56.3868 4.8111 0 0 0 0 0 0 0 0 0 0 0 0 0 0 0 0 0 0 0 0 0 0 0 0 0 0 0 0 0 0 0 0 0 0 0 0 0 0 0 0 0 0 0 0 0 0 0 0 0 0 0 0 0 0 0 0 0 0 0 0 0 0 0 0 0 0 0 0 0 0 0 0 0 0 0 -10.4869 0 0 32.8914 0 0 56.2856 36.4159 63.178 -90 -63.178 63.178 0 0 0 10.4869 0 0 1.486 0 0 66.7171 44.0801 63.178 90 63.178 63.178 0 0 0
0 0 0 0 0 0 36 100.8817 0 0 0 0 6.0126 -0.284 5.4029 -12.6055 -1.308 -11.8014 11.8755 -1.4594 13.9628 -12.3196 0.9228 8.5344 -12.8252 -1.069 -9.49 84.786 8.9627 8.1848 0 0 0 0 0 0 0 0 0 0 0 0 63.0835 -72.7636 -48.6682 -63.0171 -12.0878 7.4271 -3.1881 46.5345 -1.3711 0 0 0 0 0 0 0 0 0 0 0 0 0 0 0 0 0 0 0 0 0 0 0 0 0 0 0 0 0 0 0 0 0 0 0 0 0 0 0 0 0 0 0 0 0 0 0 0 0 0 0 0 0 0 0 0 0 0 0 0 0 0 0 0 0 0 0 0 0 0 0 0 0 0 0 -177.0824 -83.3042 176.7201 64.8369 16.5483 10.5531 -2.3509 -55.914 1.2479 0 0 0 0 0 0 0 0 0 0 0 0 0 0 0 0 0 0 0 0 0 0 0 0 0 0 0 0 0 0 0 0 0 0 0 0 0 0 0 0 0 0 0 0 0 0 0 0 0 0 0 0 0 0 0 0 0 0 0 0 0 0 0 0 0 0 0 0 0 0 0 0 0 0 0 -15.1549 0 0 31.0947 0 0 62.7503 41.1115 63.178 -90 -63.178 63.178 0 0 0 15.1549 0 0 3.2828 0 0 60.2524 39.2772 63.178 90 63.178 63.178 0 0 0
0 0 0 0 0 0 38 99.6881 0 0 0 0 7.5822 -0.3734 5.6298 -15.884 -1.7153 -12.2496 14.9591 -1.9155 14.5132 -15.6121 0.9619 7.0077 -9.4163 -0.5725 -6.943 84.8514 11.5673 10.5778 0 0 0 0 0 0 0 0 0 0 0 0 61.346 -72.3747 -46.9118 -63.5052 -11.5074 7.1365 -2.8606 43.221 -1.1334 0 0 0 0 0 0 0 0 0 0 0 0 0 0 0 0 0 0 0 0 0 0 0 0 0 0 0 0 0 0 0 0 0 0 0 0 0 0 0 0 0 0 0 0 0 0 0 0 0 0 0 0 0 0 0 0 0 0 0 0 0 0 0 0 0 0 0 0 0 0 0 0 0 0 0 178.4462 -82.9945 -178.2436 65.3255 20.4536 13.1946 2.0389 -53.5311 -1.0284 0 0 0 0 0 0 0 0 0 0 0 0 0 0 0 0 0 0 0 0 0 0 0 0 0 0 0 0 0 0 0 0 0 0 0 0 0 0 0 0 0 0 0 0 0 0 0 0 0 0 0 0 0 0 0 0 0 0 0 0 0 0 0 0 0 0 0 0 0 0 0 0 0 0 0 -19.1606 0 0 28.6902 0 0 69.1604 45.9446 63.178 -90 -63.178 63.178 0 0 0 19.1606 0 0 5.6872 0 0 53.8423 34.6832 63.178 90 63.178 63.178 0 0 0
0 0 0 0 0 0 40 98.701 0 0 0 0 8.8279 -0.3778 4.8909 -18.5215 -1.7339 -10.6044 17.4733 -1.9418 12.5863 -18.2479 1.0535 6.5528 -6.0555 -0.2346 -4.4337 85.1262 13.7438 12.6312 0 0 0 0 0 0 0 0 0 0 0 0 61.8157 -73.6251 -48.2714 -64.465 -9.7695 6.1689 -2.2231 39.6777 -0.8021 0 0 0 0 0 0 0 0 0 0 0 0 0 0 0 0 0 0 0 0 0 0 0 0 0 0 0 0 0 0 0 0 0 0 0 0 0 0 0 0 0 0 0 0 0 0 0 0 0 0 0 0 0 0 0 0 0 0 0 0 0 0 0 0 0 0 0 0 0 0 0 0 0 0 0 -172.77 -83.6636 171.9254 65.9006 21.6442 14.1265 3.8 -49.5528 -1.7544 0 0 0 0 0 0 0 0 0 0 0 0 0 0 0 0 0 0 0 0 0 0 0 0 0 0 0 0 0 0 0 0 0 0 0 0 0 0 0 0 0 0 0 0 0 0 0 0 0 0 0 0 0 0 0 0 0 0 0 0 0 0 0 0 0 0 0 0 0 0 0 0 0 0 0 -22.3288 0 0 25.7831 0 0 75.2358 50.71 63.178 -90 -63.178 63.178 0 0 0 22.3288 0 0 8.5944 0 0 47.7669 30.4637 63.178 90 63.178 63.178 0 0 0
0 0 0 0 0 0 42 98.5734 0 0 0 0 9.698 -0.2814 3.3158 -20.4009 -1.2917 -7.1698 19.2997 -1.4519 8.5239 -20.1082 1.2509 7.0468 -2.9037 -0.0519 -2.0476 85.63 15.3737 14.2557 0 0 0 0 0 0 0 0 0 0 0 0 65.1325 -76.2677 -53.2595 -65.8354 -7.0263 4.5519 -1.4419 35.7979 -0.4657 0 0 0 0 0 0 0 0 0 0 0 0 0 0 0 0 0 0 0 0 0 0 0 0 0 0 0 0 0 0 0 0 0 0 0 0 0 0 0 0 0 0 0 0 0 0 0 0 0 0 0 0 0 0 0 0 0 0 0 0 0 0 0 0 0 0 0 0 0 0 0 0 0 0 0 -145.9879 -84.3174 142.671 66.5478 20.3293 13.4206 3.5447 -44.2455 -1.4414 0 0 0 0 0 0 0 0 0 0 0 0 0 0 0 0 0 0 0 0 0 0 0 0 0 0 0 0 0 0 0 0 0 0 0 0 0 0 0 0 0 0 0 0 0 0 0 0 0 0 0 0 0 0 0 0 0 0 0 0 0 0 0 0 0 0 0 0 0 0 0 0 0 0 0 -24.5212 0 0 22.5003 0 0 80.7109 55.1769 63.178 -90 -63.178 63.178 0 0 0 24.5212 0 0 11.8771 0 0 42.2918 26.7585 63.178 90 63.178 63.178 0 0 0
0 0 0 0 0 0 44 99.3899 0 0 0 0 10.1471 -0.1041 1.1724 -21.388 -0.4781 -2.5314 20.2749 -0.5388 3.0126 -21.0934 1.5282 8.1947 -0.1094 0.0001 0.1239 86.3283 16.3463 15.3434 0 0 0 0 0 0 0 0 0 0 0 0 73.402 -79.7259 -63.7992 -67.4566 -3.5966 2.4017 -0.6689 31.4816 -0.1885 0 0 0 0 0 0 0 0 0 0 0 0 0 0 0 0 0 0 0 0 0 0 0 0 0 0 0 0 0 0 0 0 0 0 0 0 0 0 0 0 0 0 0 0 0 0 0 0 0 0 0 0 0 0 0 0 0 0 0 0 0 0 0 0 0 0 0 0 0 0 0 0 0 0 0 -111.2393 -82.9679 104.5348 67.2015 17.0497 11.375 2.2615 -37.8595 -0.7757 0 0 0 0 0 0 0 0 0 0 0 0 0 0 0 0 0 0 0 0 0 0 0 0 0 0 0 0 0 0 0 0 0 0 0 0 0 0 0 0 0 0 0 0 0 0 0 0 0 0 0 0 0 0 0 0 0 0 0 0 0 0 0 0 0 0 0 0 0 0 0 0 0 0 0 -25.6419 0 0 18.9854 0 0 85.3465 59.0994 63.178 -90 -63.178 63.178 0 0 0 25.6419 0 0 15.392 0 0 37.6562 23.6843 63.178 90 63.178 63.178 0 0 0
0 0 0 0 0 0 46 100.6101 0 0 0 0 10.1471 0.1041 -1.1724 -21.388 0.4781 2.5314 20.2749 0.5388 -3.0126 -21.1433 1.791 9.5751 2.2032 -0.0381 1.9788 87.133 16.5772 15.7782 0 0 0 0 0 0 0 0 0 0 0 0 92.0533 -82.9961 -85.0385 -69.1184 0.0396 -0.0273 -0.0358 26.7013 -0.0085 0 0 0 0 0 0 0 0 0 0 0 0 0 0 0 0 0 0 0 0 0 0 0 0 0 0 0 0 0 0 0 0 0 0 0 0 0 0 0 0 0 0 0 0 0 0 0 0 0 0 0 0 0 0 0 0 0 0 0 0 0 0 0 0 0 0 0 0 0 0 0 0 0 0 0 -90.7149 -79.7066 80.4108 67.8031 12.5875 8.4777 0.8271 -30.7792 -0.2277 0 0 0 0 0 0 0 0 0 0 0 0 0 0 0 0 0 0 0 0 0 0 0 0 0 0 0 0 0 0 0 0 0 0 0 0 0 0 0 0 0 0 0 0 0 0 0 0 0 0 0 0 0 0 0 0 0 0 0 0 0 0 0 0 0 0 0 0 0 0 0 0 0 0 0 -25.6419 0 0 15.392 0 0 88.9399 62.2359 63.178 -90 -63.178 63.178 0 0 0 25.6419 0 0 18.9854 0 0 34.0628 21.3361 63.178 90 63.178 63.178 0 0 0
0 0 0 0 0 0 48 101.4266 0 0 0 0 9.698 0.2814 -3.3158 -20.4009 1.2917 7.1698 19.2997 1.4519 -8.5239 -20.2561 1.9202 10.7189 3.9414 -0.1173 3.4085 87.9298 16.0266 15.4648 0 0 0 0 0 0 0 0 0 0 0 0 126.0569 -84.5876 -121.555 -70.6062 3.299 -2.3364 0.3655 21.5467 0.0695 0 0 0 0 0 0 0 0 0 0 0 0 0 0 0 0 0 0 0 0 0 0 0 0 0 0 0 0 0 0 0 0 0 0 0 0 0 0 0 0 0 0 0 0 0 0 0 0 0 0 0 0 0 0 0 0 0 0 0 0 0 0 0 0 0 0 0 0 0 0 0 0 0 0 0 -80.9166 -76.1581 67.5013 68.3541 7.7956 5.2978 -0.2376 -23.5646 0.0496 0 0 0 0 0 0 0 0 0 0 0 0 0 0 0 0 0 0 0 0 0 0 0 0 0 0 0 0 0 0 0 0 0 0 0 0 0 0 0 0 0 0 0 0 0 0 0 0 0 0 0 0 0 0 0 0 0 0 0 0 0 0 0 0 0 0 0 0 0 0 0 0 0 0 0 -24.5212 0 0 11.8771 0 0 91.3341 64.3749 63.178 -90 -63.178 63.178 0 0 0 24.5212 0 0 22.5003 0 0 31.6685 19.7866 63.178 90 63.178 63.178 0 0 0
0 0 0 0 0 0 50 101.299 0 0 0 0 8.8279 0.3778 -4.8909 -18.5215 1.7339 10.6044 17.4733 1.9418 -12.5863 -18.4854 1.8294 11.2069 5.0394 -0.1899 4.3142 88.6199 14.7088 14.3624 0 0 0 0 0 0 0 0 0 0 0 0 155.8383 -84.1451 -153.3228 -71.7383 5.5894 -4.043 0.5048 16.239 0.072 0 0 0 0 0 0 0 0 0 0 0 0 0 0 0 0 0 0 0 0 0 0 0 0 0 0 0 0 0 0 0 0 0 0 0 0 0 0 0 0 0 0 0 0 0 0 0 0 0 0 0 0 0 0 0 0 0 0 0 0 0 0 0 0 0 0 0 0 0 0 0 0 0 0 0 -75.9019 -73.4447 60.3816 68.9177 3.3829 2.3218 -0.7855 -16.8142 0.1161 0 0 0 0 0 0 0 0 0 0 0 0 0 0 0 0 0 0 0 0 0 0 0 0 0 0 0 0 0 0 0 0 0 0 0 0 0 0 0 0 0 0 0 0 0 0 0 0 0 0 0 0 0 0 0 0 0 0 0 0 0 0 0 0 0 0 0 0 0 0 0 0 0 0 0 -22.3288 0 0 8.5944 0 0 92.4245 65.3626 63.178 -90 -63.178 63.178 0 0 0 22.3288 0 0 25.7831 0 0 30.5781 19.0847 63.178 90 63.178 63.178 0 0 0
0 0 0 0 0 0 52 100.3119 0 0 0 0 7.5822 0.3734 -5.6298 -15.884 1.7153 12.2496 14.9591 1.9155 -14.5132 -15.9175 1.5068 10.7467 5.4503 -0.2203 4.6262 89.1535 12.6884 12.5038 0 0 0 0 0 0 0 0 0 0 0 0 167.7332 -83.4841 -166.2657 -72.4033 6.4 -4.6867 0.4254 11.1125 0.0414 0 0 0 0 0 0 0 0 0 0 0 0 0 0 0 0 0 0 0 0 0 0 0 0 0 0 0 0 0 0 0 0 0 0 0 0 0 0 0 0 0 0 0 0 0 0 0 0 0 0 0 0 0 0 0 0 0 0 0 0 0 0 0 0 0 0 0 0 0 0 0 0 0 0 0 -73.359 -72.1854 57.0028 69.5669 -0.2392 -0.1661 -0.9036 -10.9772 0.0868 0 0 0 0 0 0 0 0 0 0 0 0 0 0 0 0 0 0 0 0 0 0 0 0 0 0 0 0 0 0 0 0 0 0 0 0 0 0 0 0 0 0 0 0 0 0 0 0 0 0 0 0 0 0 0 0 0 0 0 0 0 0 0 0 0 0 0 0 0 0 0 0 0 0 0 -19.1606 0 0 5.6872 0 0 92.1634 65.1253 63.178 -90 -63.178 63.178 0 0 0 19.1606 0 0 28.6902 0 0 30.8392 19.2526 63.178 90 63.178 63.178 0 0 0
0 0 0 0 0 0 54 99.1183 0 0 0 0 6.0126 0.284 -5.4029 -12.6055 1.308 11.8014 11.8755 1.4594 -13.9628 -12.652 1.0239 9.2166 5.1421 -0.194 4.3182 89.5324 10.0692 9.9878 0 0 0 0 0 0 0 0 0 0 0 0 165.9471 -83.674 -164.3225 -72.5971 5.3768 -3.9508 0.2354 6.5682 0.0135 0 0 0 0 0 0 0 0 0 0 0 0 0 0 0 0 0 0 0 0 0 0 0 0 0 0 0 0 0 0 0 0 0 0 0 0 0 0 0 0 0 0 0 0 0 0 0 0 0 0 0 0 0 0 0 0 0 0 0 0 0 0 0 0 0 0 0 0 0 0 0 0 0 0 0 -72.6236 -72.6226 56.7429 70.3123 -2.9826 -2.1009 -0.7482 -6.2895 0.0411 0 0 0 0 0 0 0 0 0 0 0 0 0 0 0 0 0 0 0 0 0 0 0 0 0 0 0 0 0 0 0 0 0 0 0 0 0 0 0 0 0 0 0 0 0 0 0 0 0 0 0 0 0 0 0 0 0 0 0 0 0 0 0 0 0 0 0 0 0 0 0 0 0 0 0 -15.1549 0 0 3.2828 0 0 90.5622 63.6808 63.178 -90 -63.178 63.178 0 0 0 15.1549 0 0 31.0947 0 0 32.4404 20.2849 63.178 90 63.178 63.178 0 0 0
0 0 0 0 0 0 56 98.5082 0 0 0 0 4.1758 0.1546 -4.2388 -8.7783 0.7148 9.2921 8.2874 0.7983 -10.9853 -8.8031 0.5155 6.6898 4.1049 -0.1222 3.4076 89.7869 6.9815 6.9556 0 0 0 0 0 0 0 0 0 0 0 0 148.6185 -84.4223 -145.5863 -72.4342 2.4049 -1.7614 0.0656 3.0085 0.0017 0 0 0 0 0 0 0 0 0 0 0 0 0 0 0 0 0 0 0 0 0 0 0 0 0 0 0 0 0 0 0 0 0 0 0 0 0 0 0 0 0 0 0 0 0 0 0 0 0 0 0 0 0 0 0 0 0 0 0 0 0 0 0 0 0 0 0 0 0 0 0 0 0 0 0 -73.9042 -74.6666 59.6899 71.0567 -5.0077 -3.5768 -0.456 -2.8485 0.0113 0 0 0 0 0 0 0 0 0 0 0 0 0 0 0 0 0 0 0 0 0 0 0 0 0 0 0 0 0 0 0 0 0 0 0 0 0 0 0 0 0 0 0 0 0 0 0 0 0 0 0 0 0 0 0 0 0 0 0 0 0 0 0 0 0 0 0 0 0 0 0 0 0 0 0 -10.4869 0 0 1.486 0 0 87.691 61.1359 63.178 -90 -63.178 63.178 0 0 0 10.4869 0 0 32.8914 0 0 35.3117 22.149 63.178 90 63.178 63.178 0 0 0
0 0 0 0 0 0 58 98.8853 0 0 0 0 2.1415 0.0435 -2.3275 -4.5151 0.2018 5.1156 4.273 0.2258 -6.046 -4.5194 0.1363 3.4535 2.3654 -0.0402 1.945 89.9429 3.5725 3.5689 0 0 0 0 0 0 0 0 0 0 0 0 115.5624 -84.0623 -110.0826 -72.1029 -2.2941 1.67 -0.0028 0.7597 0 0 0 0 0 0 0 0 0 0 0 0 0 0 0 0 0 0 0 0 0 0 0 0 0 0 0 0 0 0 0 0 0 0 0 0 0 0 0 0 0 0 0 0 0 0 0 0 0 0 0 0 0 0 0 0 0 0 0 0 0 0 0 0 0 0 0 0 0 0 0 0 0 0 0 0 -78.4783 -77.8893 66.8545 71.6108 -6.6096 -4.7705 -0.1512 -0.7237 0.001 0 0 0 0 0 0 0 0 0 0 0 0 0 0 0 0 0 0 0 0 0 0 0 0 0 0 0 0 0 0 0 0 0 0 0 0 0 0 0 0 0 0 0 0 0 0 0 0 0 0 0 0 0 0 0 0 0 0 0 0 0 0 0 0 0 0 0 0 0 0 0 0 0 0 0 -5.3606 0 0 0.3756 0 0 83.6751 57.6695 63.178 -90 -63.178 63.178 0 0 0 5.3606 0 0 34.0019 0 0 39.3276 24.7866 63.178 90 63.178 63.178 0 0 0
0 0 0 0 0 0 60 100 0 0 0 0 0 0 0 0 0 0 0 0 0 0 0 0 0 0 0 90 0 0 0 0 0 0 0 0 0 0 0 0 0 0 90 -81.4692 -81.4692 -71.7772 -8.1088 5.872 0 0 0 0 0 0 0 0 0 0 0 0 0 0 0 0 0 0 0 0 0 0 0 0 0 0 0 0 0 0 0 0 0 0 0 0 0 0 0 0 0 0 0 0 0 0 0 0 0 0 0 0 0 0 0 0 0 0 0 0 0 0 0 0 0 0 0 0 0 0 0 0 0 0 0 0 0 0 -90 -81.4692 81.4692 71.7772 -8.1088 -5.872 0 0 0 0 0 0 0 0 0 0 0 0 0 0 0 0 0 0 0 0 0 0 0 0 0 0 0 0 0 0 0 0 0 0 0 0 0 0 0 0 0 0 0 0 0 0 0 0 0 0 0 0 0 0 0 0 0 0 0 0 0 0 0 0 0 0 0 0 0 0 0 0 0 0 0 0 0 0 0 0 0 0 0 0 78.6901 53.5081 63.178 -90 -63.178 63.178 0 0 0 0 0 0 34.3775 0 0 44.3126 28.1162 63.178 90 63.178 63.178 0 0 0
